STARLINK-5607           
1 55404C 23014P   26086.37409722 -.00033254  00000+0 -27857-2 0   860
2 55404  70.0022  19.9832 0003247 275.4176   9.1192 14.98363037    18
STARLINK-5623           
1 55405C 23014Q   26086.45187500 -.00049610  00000+0 -41579-2 0   867
2 55405  70.0025  19.7109 0002940 273.1273 138.4266 14.98352901    15
STARLINK-5630           
1 55406C 23014R   26086.36298611 -.00021895  00000+0 -18346-2 0   865
2 55406  70.0020  20.0371 0002410 266.0572 296.0901 14.98349770    19
STARLINK-5019           
1 55407C 23014S   26086.39215278 -.00040178  00000+0 -33675-2 0   864
2 55407  70.0023  19.9125 0002960 274.4236 130.0690 14.98346426    14
STARLINK-5633           
1 55410C 23014V   26086.41576389 -.00028936  00000+0 -24252-2 0   863
2 55410  70.0018  39.5965 0003034 273.3682   9.7904 14.98341825    16
STARLINK-5605           
1 55411C 23014W   26086.41229167 -.00047043  00000+0 -39434-2 0   861
2 55411  70.0021  19.9639 0002696 273.7983 149.2519 14.98345040    17
STARLINK-5060           
1 55413C 23014Y   26086.38937500 -.00006853  00000+0 -57435-3 0   862
2 55413  70.0017  39.6372 0003015 274.4513 248.9356 14.98332175    11
STARLINK-5620           
1 55414C 23014Z   26086.43104167 -.00036447  00000+0 -30551-2 0   865
2 55414  70.0018  39.6343 0003451 272.2135  25.8141 14.98338999    15
STARLINK-5624           
1 55416C 23014AB  26086.43798611 -.00039946  00000+0 -33486-2 0   867
2 55416  70.0017  39.6673 0003099 273.4822  16.9690 14.98339812    11
STARLINK-5030           
1 55418C 23014AD  26086.44631944 -.00043234  00000+0 -36239-2 0   869
2 55418  70.0018  39.6966 0003000 272.7824  17.5793 14.98344949    13
STARLINK-5629           
1 55419C 23014AE  26086.35812500  .00000626  00000+0  52440-4 0   869
2 55419  70.0020  39.8440 0003062 274.2631 328.0643 14.98325441    17
STARLINK-5604           
1 55420C 23014AF  26086.45187500 -.00030339  00000+0 -25431-2 0   861
2 55420  70.0019 359.6970 0002775 272.0827 275.7327 14.98337587    12
STARLINK-5598           
1 55421C 23014AG  26086.37409722 -.00006164  00000+0 -51661-3 0   860
2 55421  70.0019  39.8540 0003373 280.5951   2.8374 14.98330720    13
STARLINK-5006           
1 55422C 23014AH  26086.37201389  .00005378  00000+0  45069-3 0   869
2 55422  70.0018  39.7285 0003046 275.4191 109.3088 14.98329009    17
STARLINK-5068           
1 55423C 23014AJ  26086.45881944 -.00046098  00000+0 -38637-2 0   868
2 55423  70.0019  39.7391 0002999 271.0977  19.1451 14.98348386    18
STARLINK-5615           
1 55425C 23014AL  26086.40048611 -.00015264  00000+0 -12792-2 0   866
2 55425  70.0018  39.8378 0003027 273.0788 107.6177 14.98337580    12
STARLINK-5638           
1 55426C 23014AM  26086.42548611 -.00198360  00000+0 -16589-1 0   860
2 55426  70.0018  39.8742 0003069 279.6751 145.7812 14.98510954    13
STARLINK-5064           
1 55428C 23014AP  26086.34423611  .00008182  00000+0  68556-3 0   868
2 55428  70.0019  40.1300 0003036 274.1288  28.1881 14.98331243    12
STARLINK-5645           
1 55429C 23014AQ  26086.33590278  .00018369  00000+0  15396-2 0   863
2 55429  70.0018  40.0752 0002816 274.4740  50.4444 14.98317483    16
STARLINK-5642           
1 55430C 23014AR  26086.45048611 -.00012175  00000+0 -10204-2 0   861
2 55430  70.0008  59.5955 0003082 273.9505 352.6746 14.98335734    17
STARLINK-5643           
1 55431C 23014AS  26086.38451389 -.00008260  00000+0 -69221-3 0   868
2 55431  70.0018  40.0027 0003000 274.9083 267.1197 14.98335981    10
STARLINK-5637           
1 55432C 23014AT  26086.38381944  .00036225  00000+0  30354-2 0   862
2 55432  70.0012  59.8161 0002883 271.0700 310.1285 14.98317912    15
STARLINK-5570           
1 55433C 23014AU  26086.44493056  .00018464  00000+0  15477-2 0   862
2 55433  70.0008  59.5850 0002878 267.9296 351.1400 14.98313566    16
STARLINK-5621           
1 55434C 23014AV  26086.36159722  .00040694  00000+0  34099-2 0   864
2 55434  70.0014  59.9217 0003144 272.9066 144.3540 14.98314862    10
STARLINK-5626           
1 55435C 23014AW  26086.42201389  .00004851  00000+0  40650-3 0   865
2 55435  70.0011  59.7199 0003201 273.8205 154.2434 14.98331051    15
STARLINK-5640           
1 55436C 23014AX  26086.43520833 -.00006962  00000+0 -58339-3 0   865
2 55436  70.0012  59.7613 0003133 275.8730 155.8252 14.98336339    16
STARLINK-5074           
1 55438C 23014AZ  26086.43034722 -.00047637  00000+0 -39928-2 0   860
2 55438  70.0023  19.5539 0002862 271.8490 226.1930 14.98349748    11
STARLINK-5634           
1 55439C 23014BA  26086.45743056 -.00014406  00000+0 -12075-2 0   862
2 55439  70.0013  59.7323 0003175 274.5851 254.4338 14.98332348    11
STARLINK-5699           
1 55449C 23015A   26086.34701389  .00610870  00000+0  24818-1 0   867
2 55449  42.9996 228.8808 0001650 268.5890 102.3856 15.23467796    10
STARLINK-5686           
1 55450C 23015B   26086.35048611  .00573980  00000+0  23474-1 0   869
2 55450  42.9995 228.8278 0001712 265.1491 139.4840 15.23263770    11
STARLINK-5656           
1 55451C 23015C   26086.44145833  .00561040  00000+0  24122-1 0   869
2 55451  42.9991 228.5509 0001955 264.4139 180.2506 15.21581242    10
STARLINK-5683           
1 55452C 23015D   26086.35951389  .00841830  00000+0  33559-1 0   863
2 55452  42.9992 229.1232 0001676 272.9582  32.5342 15.23988222    16
STARLINK-5684           
1 55453C 23015E   26086.34145833  .00576370  00000+0  22975-1 0   866
2 55453  42.9992 228.5798 0001808 264.9792 214.8849 15.24120967    10
STARLINK-5636           
1 55454C 23015F   26086.40326389  .00560250  00000+0  22543-1 0   862
2 55454  42.9993 228.2017 0001718 266.9579 201.1840 15.23816483    12
STARLINK-5680           
1 55455C 23015G   26086.42201389  .00531160  00000+0  23628-1 0   860
2 55455  42.9991 228.7766 0001555 274.5653  13.3708 15.20438178    18
STARLINK-5058           
1 55456C 23015H   26086.36854167  .00545510  00000+0  22760-1 0   862
2 55456  42.9993 228.5560 0001791 271.1160 303.0110 15.22604771    11
STARLINK-5682           
1 55457C 23015J   26086.42895833  .00544260  00000+0  21813-1 0   864
2 55457  42.9993 228.0789 0001688 270.2170 334.3463 15.23957393    16
STARLINK-5020           
1 55458C 23015K   26086.41923611  .00599340  00000+0  25831-1 0   863
2 55458  42.9993 228.4711 0001649 269.1568 137.1203 15.21481773    14
STARLINK-5669           
1 55459C 23015L   26086.42826389  .00575210  00000+0  23696-1 0   866
2 55459  42.9994 228.1874 0001708 269.4558 285.9271 15.23018458    16
STARLINK-5678           
1 55460C 23015M   26086.45048611  .00540900  00000+0  23413-1 0   860
2 55460  42.9993 228.2087 0001689 269.8507 345.4641 15.21363588    18
STARLINK-5646           
1 55461C 23015N   26086.43659722  .00576370  00000+0  23855-1 0   860
2 55461  42.9995 228.2356 0001739 268.9501 292.2320 15.22861356    10
STARLINK-5673           
1 55462C 23015P   26086.36576389  .00565520  00000+0  24227-1 0   869
2 55462  42.9992 228.4727 0001795 269.4185 328.8950 15.21702182    13
STARLINK-5677           
1 55463C 23015Q   26086.42618056  .00014685  00000+0  78361-3 0   866
2 55463  42.9990 228.6705 0001168 256.1517  87.1488 15.14368981    14
STARLINK-5676           
1 55464C 23015R   26086.41923611  .00629720  00000+0  27129-1 0   868
2 55464  42.9994 228.2977 0001723 266.7505 211.3119 15.21479866    12
STARLINK-5674           
1 55465C 23015S   26086.42340278  .00503540  00000+0  21880-1 0   861
2 55465  42.9992 228.0783 0001702 268.1403 316.8109 15.21250912    13
STARLINK-5628           
1 55466C 23015T   26086.38104167  .00689010  00000+0  31034-1 0   861
2 55466  42.9993 228.5351 0001718 270.6854 347.0141 15.19933604    11
STARLINK-5679           
1 55467C 23015U   26086.41854167  .00827720  00000+0  31682-1 0   869
2 55467  42.9997 228.3018 0001692 269.2164 205.5655 15.25347345    19
STARLINK-5672           
1 55468C 23015V   26086.39770833  .00570670  00000+0  25033-1 0   866
2 55468  42.9993 228.3269 0001682 266.8255 131.6089 15.20896280    19
STARLINK-5681           
1 55469C 23015W   26086.42340278  .00490200  00000+0  21512-1 0   865
2 55469  42.9992 228.0523 0001712 267.5176 328.3432 15.20921876    10
STARLINK-5708           
1 55470C 23015X   26086.43034722  .00503760  00000+0  22498-1 0   862
2 55470  42.9992 228.0558 0001675 267.3569 347.7073 15.20317305    14
STARLINK-5711           
1 55471C 23015Y   26086.45118056  .00825770  00000+0  32645-1 0   861
2 55471  42.9995 228.0029 0001573 269.3998  72.0428 15.24275274    10
STARLINK-5705           
1 55472C 23015Z   26086.36576389 -.00001533  00000+0 -91205-4 0   864
2 55472  42.9998 217.2876 0000784 280.0386 270.0166 15.10473396    17
STARLINK-5689           
1 55474C 23015AB  26086.39979167  .00030806  00000+0  11455-2 0   860
2 55474  43.0000 239.9699 0001567 266.9677 351.3246 15.26698460    15
STARLINK-5650           
1 55475C 23015AC  26086.37062500  .00575480  00000+0  26900-1 0   865
2 55475  42.9993 228.5793 0001770 267.7984 298.1218 15.18716050    14
STARLINK-5685           
1 55477C 23015AE  26086.40395833 -.00518130  00000+0 -29846-1 0   862
2 55477  43.0000 216.7006 0001570 265.9932 289.4474 15.11905507    11
STARLINK-5691           
1 55478C 23015AF  26086.37131944  .00094311  00000+0  56141-2 0   867
2 55478  42.9998 217.0425 0001438 273.1978  36.2024 15.10416866    12
STARLINK-5688           
1 55479C 23015AG  26086.44909722 -.00026987  00000+0 -16128-2 0   860
2 55479  42.9997 216.8651 0002276 263.0975   4.0274 15.10333530    12
STARLINK-5690           
1 55480C 23015AH  26086.37687500  .00034462  00000+0  12803-2 0   862
2 55480  42.9997 239.3496 0001605 262.1079 150.2519 15.26727662    17
STARLINK-5694           
1 55481C 23015AJ  26086.37895833  .00036274  00000+0  13480-2 0   868
2 55481  42.9992 239.6645 0001232 262.1183  59.8902 15.26716133    15
